STARLINK-31447          
1 59302U 24056G   26068.48980564 -.00000466  00000+0 -74071-5 0  9993
2 59302  43.0009 231.8462 0000947 274.9567  85.1176 15.27571238111128
FLOCK 4G-3              
1 62639U 25009AG  26068.80174065  .00011494  00000+0  43389-3 0  9993
2 62639  97.4062 151.4068 0001320 293.2042  66.9058 15.27179310 63727
